STARLINK-36654          
1 67838U 26033T   26068.99799061  .00258028  00000+0  11877-2 0  9998
2 67838  42.9985 269.4636 0002202 257.7916 102.2710 15.82089282  4675
STARLINK-36652          
1 67839U 26033U   26068.99724288  .00347178  00000+0  15766-2 0  9994
2 67839  42.9981 269.4578 0002096 257.5916 102.4721 15.82144627  4675
STARLINK-36651          
1 67840U 26033V   26068.99649283  .00325692  00000+0  14838-2 0  9993
2 67840  42.9981 269.4510 0002518 252.6679 107.3917 15.82130970  4671
STARLINK-36656          
1 67841U 26033W   26068.99574348  .00353265  00000+0  16030-2 0  9996
2 67841  42.9978 269.4454 0002021 263.4794  96.5848 15.82144181  4673
STARLINK-36653          
1 67842U 26033X   26068.99499693  .00371748  00000+0  16836-2 0  9996
2 67842  42.9979 269.4392 0002029 262.9645  97.0996 15.82138174  4678
STARLINK-36589          
1 67843U 26033Y   26068.99424639  .00274945  00000+0  12613-2 0  9995
2 67843  42.9977 269.4323 0002086 250.8603 109.2043 15.82116261  4676
STARLINK-36598          
1 67844U 26033Z   26068.99349844  .00395096  00000+0  17830-2 0  9997
2 67844  42.9981 269.4275 0002048 271.9135  88.1502 15.82154324  4677
STARLINK-36606          
1 67845U 26033AA  26068.92962605  .00481643  00000+0  21531-2 0  9994
2 67845  42.9978 269.8070 0001334 333.7804  26.3000 15.82133261  4661
STARLINK-36658          
1 67846U 26033AB  26068.99200075  .00238496  00000+0  11003-2 0  9997
2 67846  42.9978 269.4153 0002190 282.2073  77.8554 15.82092186  4673
STARLINK-36618          
1 67847U 26033AC  26069.00003472  .00054984  94844-5  17157-3 0  9993
2 67847  42.9823 267.1174 0002338 281.7808 290.3063 15.91496715  4713
STARLINK-36660          
1 67848U 26033AD  26068.92812597  .00588643  00000+0  25923-2 0  9998
2 67848  42.9975 269.7949 0002123 306.3567  53.7109 15.82182214  4660
STARLINK-36602          
1 67849U 26033AE  26068.99049806  .00275679  00000+0  12642-2 0  9997
2 67849  42.9975 269.4026 0002139 256.5139 103.5494 15.82121863  4677
